ISS (ZARYA)             
1 25544U 98067A   26066.25459274  .00014982  00000+0  28421-3 0  9991
2 25544  51.6318  84.3952 0008142 166.2106 193.9106 15.48501510555952
POISK                   
1 36086U 09060A   26066.25459274  .00014982  00000+0  28421-3 0  9999
2 36086  51.6318  84.3952 0008142 166.2106 193.9106 15.48501510554448
CSS (TIANHE)            
1 48274U 21035A   26066.15577909  .00030452  00000+0  36120-3 0  9997
2 48274  41.4664 223.5772 0006995 257.5663 102.4393 15.60515598277219
ISS (NAUKA)             
1 49044U 21066A   26066.25459274  .00014982  00000+0  28421-3 0  9997
2 49044  51.6318  84.3952 0008142 166.2106 193.9106 15.48501510554457
FREGAT DEB              
1 49271U 11037PF  26064.97574117  .00028561  00000+0  41642-1 0  9993
2 49271  51.6493 311.8987 0957104  50.8853 317.3235 12.39967329212230
CSS (WENTIAN)           
1 53239U 22085A   26066.15577909  .00030452  00000+0  36120-3 0  9990
2 53239  41.4664 223.5772 0006995 257.5663 102.4393 15.60515598275618
CSS (MENGTIAN)          
1 54216U 22143A   26066.15577909  .00030452  00000+0  36120-3 0  9991
2 54216  41.4664 223.5772 0006995 257.5663 102.4393 15.60515598275580
PROGRESS-MS 31          
1 64751U 25146A   26066.25459274  .00014982  00000+0  28421-3 0  9992
2 64751  51.6318  84.3952 0008142 166.2106 193.9106 15.48501510554460
TIANZHOU-9              
1 64786U 25149A   26066.15577909  .00030452  00000+0  36120-3 0  9993
2 64786  41.4664 223.5772 0006995 257.5663 102.4393 15.60515598275594
PROGRESS-MS 32          
1 65586U 25204A   26066.25459274  .00014982  00000+0  28421-3 0  9994
2 65586  51.6318  84.3952 0008142 166.2106 193.9106 15.48501510554502
CYGNUS NG-23            
1 65616U 25208A   26066.25459274  .00014982  00000+0  28421-3 0  9992
2 65616  51.6318  84.3952 0008142 166.2106 193.9106 15.48501510554517
ISS OBJECT XK           
1 65731U 98067XK  26066.22011182  .02017036  42574-2  15285-2 0  9995
2 65731  51.6135  59.2178 0003768 103.9528 256.1908 16.15536923 26504
YOTSUBA-KULOVER         
1 65941U 98067XN  26066.23891874  .00265557  00000+0  13994-2 0  9994
2 65941  51.6206  69.9935 0005817  51.4976 308.6546 15.79338346 23119
E-KAGAKU-1              
1 65943U 98067XQ  26066.24285552  .00257698  00000+0  13785-2 0  9992
2 65943  51.6230  70.0378 0006123  57.4847 302.6745 15.79025716 23115
HRC MONOBLOCK CAMERA    
1 66052U 98067XR  26066.26927721  .00068611  00000+0  77330-3 0  9999
2 66052  51.6272  77.7457 0003583  81.1712 278.9687 15.61885249 22011
HTV-X1                  
1 66174U 25241A   26066.25459274  .00014982  00000+0  28421-3 0  9999
2 66174  51.6318  84.3952 0008142 166.2106 193.9106 15.48501510554472
