[{"OBJECT_NAME":"ISS (ZARYA)","OBJECT_ID":"1998-067A","EPOCH":"2026-03-07T06:06:36.812736","MEAN_MOTION":15.4850151,"ECCENTRICITY":0.00081427,"INCLINATION":51.6318,"RA_OF_ASC_NODE":84.3952,"ARG_OF_PERICENTER":166.2106,"MEAN_ANOMALY":193.9106,"EPHEMERIS_TYPE":0,"CLASSIFICATION_TYPE":"U","NORAD_CAT_ID":25544,"ELEMENT_SET_NO":999,"REV_AT_EPOCH":55595,"BSTAR":0.00028420598,"MEAN_MOTION_DOT":0.00014982,"MEAN_MOTION_DDOT":0},{"OBJECT_NAME":"POISK","OBJECT_ID":"2009-060A","EPOCH":"2026-03-07T06:06:36.812736","MEAN_MOTION":15.4850151,"ECCENTRICITY":0.00081427,"INCLINATION":51.6318,"RA_OF_ASC_NODE":84.3952,"ARG_OF_PERICENTER":166.2106,"MEAN_ANOMALY":193.9106,"EPHEMERIS_TYPE":0,"CLASSIFICATION_TYPE":"U","NORAD_CAT_ID":36086,"ELEMENT_SET_NO":999,"REV_AT_EPOCH":55444,"BSTAR":0.00028420598,"MEAN_MOTION_DOT":0.00014982,"MEAN_MOTION_DDOT":0},{"OBJECT_NAME":"CSS (TIANHE)","OBJECT_ID":"2021-035A","EPOCH":"2026-03-07T03:44:19.313376","MEAN_MOTION":15.60515598,"ECCENTRICITY":0.00069956,"INCLINATION":41.4664,"RA_OF_ASC_NODE":223.5772,"ARG_OF_PERICENTER":257.5663,"MEAN_ANOMALY":102.4393,"EPHEMERIS_TYPE":0,"CLASSIFICATION_TYPE":"U","NORAD_CAT_ID":48274,"ELEMENT_SET_NO":999,"REV_AT_EPOCH":27721,"BSTAR":0.00036120059,"MEAN_MOTION_DOT":0.00030452,"MEAN_MOTION_DDOT":0},{"OBJECT_NAME":"ISS (NAUKA)","OBJECT_ID":"2021-066A","EPOCH":"2026-03-07T06:06:36.812736","MEAN_MOTION":15.4850151,"ECCENTRICITY":0.00081427,"INCLINATION":51.6318,"RA_OF_ASC_NODE":84.3952,"ARG_OF_PERICENTER":166.2106,"MEAN_ANOMALY":193.9106,"EPHEMERIS_TYPE":0,"CLASSIFICATION_TYPE":"U","NORAD_CAT_ID":49044,"ELEMENT_SET_NO":999,"REV_AT_EPOCH":55445,"BSTAR":0.00028420598,"MEAN_MOTION_DOT":0.00014982,"MEAN_MOTION_DDOT":0},{"OBJECT_NAME":"FREGAT DEB","OBJECT_ID":"2011-037PF","EPOCH":"2026-03-05T23:25:04.037088","MEAN_MOTION":12.39967329,"ECCENTRICITY":0.09571042,"INCLINATION":51.6493,"RA_OF_ASC_NODE":311.8987,"ARG_OF_PERICENTER":50.8853,"MEAN_ANOMALY":317.3235,"EPHEMERIS_TYPE":0,"CLASSIFICATION_TYPE":"U","NORAD_CAT_ID":49271,"ELEMENT_SET_NO":999,"REV_AT_EPOCH":21223,"BSTAR":0.041642496,"MEAN_MOTION_DOT":0.00028561,"MEAN_MOTION_DDOT":0},{"OBJECT_NAME":"CSS (WENTIAN)","OBJECT_ID":"2022-085A","EPOCH":"2026-03-07T03:44:19.313376","MEAN_MOTION":15.60515598,"ECCENTRICITY":0.00069956,"INCLINATION":41.4664,"RA_OF_ASC_NODE":223.5772,"ARG_OF_PERICENTER":257.5663,"MEAN_ANOMALY":102.4393,"EPHEMERIS_TYPE":0,"CLASSIFICATION_TYPE":"U","NORAD_CAT_ID":53239,"ELEMENT_SET_NO":999,"REV_AT_EPOCH":27561,"BSTAR":0.00036120059,"MEAN_MOTION_DOT":0.00030452,"MEAN_MOTION_DDOT":0},{"OBJECT_NAME":"CSS (MENGTIAN)","OBJECT_ID":"2022-143A","EPOCH":"2026-03-07T03:44:19.313376","MEAN_MOTION":15.60515598,"ECCENTRICITY":0.00069956,"INCLINATION":41.4664,"RA_OF_ASC_NODE":223.5772,"ARG_OF_PERICENTER":257.5663,"MEAN_ANOMALY":102.4393,"EPHEMERIS_TYPE":0,"CLASSIFICATION_TYPE":"U","NORAD_CAT_ID":54216,"ELEMENT_SET_NO":999,"REV_AT_EPOCH":27558,"BSTAR":0.00036120059,"MEAN_MOTION_DOT":0.00030452,"MEAN_MOTION_DDOT":0},{"OBJECT_NAME":"PROGRESS-MS 31","OBJECT_ID":"2025-146A","EPOCH":"2026-03-07T06:06:36.812736","MEAN_MOTION":15.4850151,"ECCENTRICITY":0.00081427,"INCLINATION":51.6318,"RA_OF_ASC_NODE":84.3952,"ARG_OF_PERICENTER":166.2106,"MEAN_ANOMALY":193.9106,"EPHEMERIS_TYPE":0,"CLASSIFICATION_TYPE":"U","NORAD_CAT_ID":64751,"ELEMENT_SET_NO":999,"REV_AT_EPOCH":55446,"BSTAR":0.00028420598,"MEAN_MOTION_DOT":0.00014982,"MEAN_MOTION_DDOT":0},{"OBJECT_NAME":"TIANZHOU-9","OBJECT_ID":"2025-149A","EPOCH":"2026-03-07T03:44:19.313376","MEAN_MOTION":15.60515598,"ECCENTRICITY":0.00069956,"INCLINATION":41.4664,"RA_OF_ASC_NODE":223.5772,"ARG_OF_PERICENTER":257.5663,"MEAN_ANOMALY":102.4393,"EPHEMERIS_TYPE":0,"CLASSIFICATION_TYPE":"U","NORAD_CAT_ID":64786,"ELEMENT_SET_NO":999,"REV_AT_EPOCH":27559,"BSTAR":0.00036120059,"MEAN_MOTION_DOT":0.00030452,"MEAN_MOTION_DDOT":0},{"OBJECT_NAME":"PROGRESS-MS 32","OBJECT_ID":"2025-204A","EPOCH":"2026-03-07T06:06:36.812736","MEAN_MOTION":15.4850151,"ECCENTRICITY":0.00081427,"INCLINATION":51.6318,"RA_OF_ASC_NODE":84.3952,"ARG_OF_PERICENTER":166.2106,"MEAN_ANOMALY":193.9106,"EPHEMERIS_TYPE":0,"CLASSIFICATION_TYPE":"U","NORAD_CAT_ID":65586,"ELEMENT_SET_NO":999,"REV_AT_EPOCH":55450,"BSTAR":0.00028420598,"MEAN_MOTION_DOT":0.00014982,"MEAN_MOTION_DDOT":0},{"OBJECT_NAME":"CYGNUS NG-23","OBJECT_ID":"2025-208A","EPOCH":"2026-03-07T06:06:36.812736","MEAN_MOTION":15.4850151,"ECCENTRICITY":0.00081427,"INCLINATION":51.6318,"RA_OF_ASC_NODE":84.3952,"ARG_OF_PERICENTER":166.2106,"MEAN_ANOMALY":193.9106,"EPHEMERIS_TYPE":0,"CLASSIFICATION_TYPE":"U","NORAD_CAT_ID":65616,"ELEMENT_SET_NO":999,"REV_AT_EPOCH":55451,"BSTAR":0.00028420598,"MEAN_MOTION_DOT":0.00014982,"MEAN_MOTION_DDOT":0},{"OBJECT_NAME":"ISS OBJECT XK","OBJECT_ID":"1998-067XK","EPOCH":"2026-03-07T05:16:57.661248","MEAN_MOTION":16.15536923,"ECCENTRICITY":0.00037688,"INCLINATION":51.6135,"RA_OF_ASC_NODE":59.2178,"ARG_OF_PERICENTER":103.9528,"MEAN_ANOMALY":256.1908,"EPHEMERIS_TYPE":0,"CLASSIFICATION_TYPE":"U","NORAD_CAT_ID":65731,"ELEMENT_SET_NO":999,"REV_AT_EPOCH":2650,"BSTAR":0.0015284792,"MEAN_MOTION_DOT":0.02017036,"MEAN_MOTION_DDOT":0.0042573958},{"OBJECT_NAME":"YOTSUBA-KULOVER","OBJECT_ID":"1998-067XN","EPOCH":"2026-03-07T05:44:02.579136","MEAN_MOTION":15.79338346,"ECCENTRICITY":0.00058179,"INCLINATION":51.6206,"RA_OF_ASC_NODE":69.9935,"ARG_OF_PERICENTER":51.4976,"MEAN_ANOMALY":308.6546,"EPHEMERIS_TYPE":0,"CLASSIFICATION_TYPE":"U","NORAD_CAT_ID":65941,"ELEMENT_SET_NO":999,"REV_AT_EPOCH":2311,"BSTAR":0.0013993752,"MEAN_MOTION_DOT":0.00265557,"MEAN_MOTION_DDOT":0},{"OBJECT_NAME":"E-KAGAKU-1","OBJECT_ID":"1998-067XQ","EPOCH":"2026-03-07T05:49:42.716928","MEAN_MOTION":15.79025716,"ECCENTRICITY":0.00061237,"INCLINATION":51.623,"RA_OF_ASC_NODE":70.0378,"ARG_OF_PERICENTER":57.4847,"MEAN_ANOMALY":302.6745,"EPHEMERIS_TYPE":0,"CLASSIFICATION_TYPE":"U","NORAD_CAT_ID":65943,"ELEMENT_SET_NO":999,"REV_AT_EPOCH":2311,"BSTAR":0.0013785385,"MEAN_MOTION_DOT":0.00257698,"MEAN_MOTION_DDOT":0},{"OBJECT_NAME":"HRC MONOBLOCK CAMERA","OBJECT_ID":"1998-067XR","EPOCH":"2026-03-07T06:27:45.550944","MEAN_MOTION":15.61885249,"ECCENTRICITY":0.00035832,"INCLINATION":51.6272,"RA_OF_ASC_NODE":77.7457,"ARG_OF_PERICENTER":81.1712,"MEAN_ANOMALY":278.9687,"EPHEMERIS_TYPE":0,"CLASSIFICATION_TYPE":"U","NORAD_CAT_ID":66052,"ELEMENT_SET_NO":999,"REV_AT_EPOCH":2201,"BSTAR":0.00077330333,"MEAN_MOTION_DOT":0.00068611,"MEAN_MOTION_DDOT":0},{"OBJECT_NAME":"HTV-X1","OBJECT_ID":"2025-241A","EPOCH":"2026-03-07T06:06:36.812736","MEAN_MOTION":15.4850151,"ECCENTRICITY":0.00081427,"INCLINATION":51.6318,"RA_OF_ASC_NODE":84.3952,"ARG_OF_PERICENTER":166.2106,"MEAN_ANOMALY":193.9106,"EPHEMERIS_TYPE":0,"CLASSIFICATION_TYPE":"U","NORAD_CAT_ID":66174,"ELEMENT_SET_NO":999,"REV_AT_EPOCH":55447,"BSTAR":0.00028420598,"MEAN_MOTION_DOT":0.00014982,"MEAN_MOTION_DDOT":0}]
